[{"OBJECT_NAME":"STARLINK-5990","OBJECT_ID":"2023-064A","EPOCH":"2026-03-09T05:13:27.483744","MEAN_MOTION":14.98564845,"ECCENTRICITY":0.0004516,"INCLINATION":70.0007,"RA_OF_ASC_NODE":145.7196,"ARG_OF_PERICENTER":261.0003,"MEAN_ANOMALY":99.0646,"EPHEMERIS_TYPE":0,"CLASSIFICATION_TYPE":"U","NORAD_CAT_ID":56448,"ELEMENT_SET_NO":999,"REV_AT_EPOCH":15517,"BSTAR":0.002277471,"MEAN_MOTION_DOT":0.00027357,"MEAN_MOTION_DDOT":0},{"OBJECT_NAME":"NOAA 16 DEB","OBJECT_ID":"2000-055FT","EPOCH":"2026-03-09T11:21:21.418848","MEAN_MOTION":14.95188517,"ECCENTRICITY":0.00213748,"INCLINATION":98.8051,"RA_OF_ASC_NODE":256.9705,"ARG_OF_PERICENTER":245.6688,"MEAN_ANOMALY":114.2298,"EPHEMERIS_TYPE":0,"CLASSIFICATION_TYPE":"U","NORAD_CAT_ID":41267,"ELEMENT_SET_NO":999,"REV_AT_EPOCH":53609,"BSTAR":0.0049990459,"MEAN_MOTION_DOT":0.00055514,"MEAN_MOTION_DDOT":0}]
